#aV2006 12 27  0  0   .00000000      96 DD+AD WGS84 FIT  NGA
## 1407 259200.00000000   900.00000000 54096  .0000000000000
+   30     1  2  3  4  5  6  7  8  9 10 11 12 13 14 16 17 18
+         19 20 21 22 23 24 25 26 27 28 29 30 31  0  0  0  0
+          0  0  0  0  0  0  0  0  0  0  0  0  0  0  0  0  0
+          0  0  0  0  0  0  0  0  0  0  0  0  0  0  0  0  0
+          0  0  0  0  0  0  0  0  0  0  0  0  0  0  0  0  0
++         0  0  0  0  0  0  0  0  0  0  0  0  0  0  0  0  0
++         0  0  0  0  0  0  0  0  0  0  0  0  0  0  0  0  0
++         0  0  0  0  0  0  0  0  0  0  0  0  0  0  0  0  0
++         0  0  0  0  0  0  0  0  0  0  0  0  0  0  0  0  0
++         0  0  0  0  0  0  0  0  0  0  0  0  0  0  0  0  0
%c cc cc ccc ccc cccc cccc cccc cccc ccccc ccccc ccccc ccccc
%c cc cc ccc ccc cccc cccc cccc cccc ccccc ccccc ccccc ccccc
%f  0.0000000  0.000000000  0.00000000000  0.000000000000000
%f  0.0000000  0.000000000  0.00000000000  0.000000000000000
%i    0    0    0    0      0      0      0      0         0
%i    0    0    0    0      0      0      0      0         0
/*      NGA, ST. LOUIS,MO.                                  
/*   EPHEMERIS COMPUTED FROM  3 DAYS OF DATA                
/* CCCCCCCCCCCCCCCCCCCCCCCCCCCCCCCCCCCCCCCCCCCCCCCCCCCCCCCCC
/* CCCCCCCCCCCCCCCCCCCCCCCCCCCCCCCCCCCCCCCCCCCCCCCCCCCCCCCCC
*  2006 12 27 12 30   .00000000                                                 
P  1  13546.535627 -11632.289701 -19433.127780     97.787746                    
V  1   -614.795207  25088.601575 -15343.365422       .023286                    
P  2 -22990.380940  13020.115772    250.086091     67.796216                    
V  2  -2200.121555  -2713.406797 -31628.890626       .034835                    
P  3  12008.438048 -15591.140680  17490.020046    484.400761                    
V  3   4170.104295  22591.110200  17407.133730       .701795                    
P  4 -23853.971083   3173.091286 -11693.571470    349.791009                    
V  4  11791.305870  -9040.688281 -26274.243075       .031101                    
P  5   3514.063344  17790.788029 -19685.471907    447.787640                    
V  5 -22582.876479  -9668.271603 -12770.691063       .180622                    
P  6   7709.902524  23459.231580   9892.996313    488.985259                    
V  6  -3072.431936  12420.560955 -27628.944750      -.200009                    
P  7  11773.990800  18817.243729  14858.487350    462.991972                    
V  7  -1816.943106  18474.247729 -22564.831154      -.099953                    
P  8 -18450.381982  -4844.426000  18540.887883    -91.138843                    
V  8  20682.664197 -11420.401867  17057.185756      -.015325                    
P  9  -9692.252412  19009.146758 -16240.171248     50.569099                    
V  9 -17773.454318   8586.348800  21660.812630       .015493                    
P 10 -15364.923958   6860.768122  20528.336365     94.981161                    
V 10 -21706.740697 -14652.795840 -10981.310335       .005573                    
P 11   5722.839658 -20529.144659 -15776.769074      1.233297                    
V 11  17953.869881  -9852.696485  19736.224652       .012944                    
P 12   2552.583307  17550.093830 -19679.557553    -76.071138                    
V 12 -22242.052405 -11914.428123 -13403.131081       .085515                    
P 13  -6914.047075 -22458.098854  12334.630174    126.603012                    
V 13   2262.175792 -15644.343264 -26979.029944       .039064                    
P 14  14004.549193   6439.611593 -21557.362176      2.870564                    
V 14  -1407.881346  27449.597088   7188.978455       .011248                    
P 16  19180.924431  -3053.788576  18249.641555    106.159152                    
V 16  18771.672878  13302.602370 -17457.096288       .039500                    
P 17 -14714.425168  -6370.781808 -21199.522361     84.716946                    
V 17   1214.096022 -26865.289895   7119.581120      -.013948                    
P 18  19012.781463  17798.337393   6154.560534   -253.720302                    
V 18  -7749.841059  -2027.022212  30142.349914      -.001819                    
P 19   8726.328406 -23136.773755   9667.015848     49.570723                    
V 19   1667.919669  12352.225956  28424.797955       .043711                    
P 20  -5521.324654 -18395.159794 -18452.806870    -21.869630                    
V 20  20827.003332  10451.611100 -16692.127198      -.000673                    
P 21  13508.755354  10076.200051  20728.541222     66.476630                    
V 21 -22937.601712  12407.980235   8404.411527       .012625                    
P 22  23497.629622  10941.739174  -5679.930774    158.358230                    
V 22   4498.199671   6610.472366  30458.240361       .023791                    
P 23   -513.995557 -26404.502298   1472.330935    143.991979                    
V 23   2738.556335  -1922.861310 -32005.306208       .011526                    
P 24 -19593.705403  16182.690559   8493.053657     63.537544                    
V 24 -10411.913817   2412.857222 -29003.792966       .030950                    
P 25  23508.628693 -10398.389297  -6607.719062    397.036790                    
V 25  -5802.581365   7264.703999 -30068.172173      -.072269                    
P 26  -8087.467230  22447.760816  10613.148582    -66.342483                    
V 26  -1425.103389 -14347.254396  28732.384910      -.172477                    
P 27 -10317.370204 -11730.206676  22133.728804     85.374901                    
V 27  22394.591716 -14317.218918   2655.061809       .020274                    
P 28 -23089.901007 -13401.057387  -1450.955768     10.992265                    
V 28   -507.489898  -3301.348964  31458.969074      -.009882                    
P 29 -10202.134631  19366.154373  15027.285046    284.469305                    
V 29  -1300.351370 -18784.479805  24004.576999       .201440                    
P 30  14456.512347  18542.805745 -12763.851877     20.754240                    
V 30 -14964.717974  -5423.187851 -25326.593739       .011911                    
P 31  24165.435367  -6384.501840  -8852.770967    -13.925363                    
V 31  -8785.699013   7867.384551 -28965.977665       .066918                    
EOF
